[{"OBJECT_NAME":"MR-1","OBJECT_ID":"2026-015B","EPOCH":"2026-03-09T15:20:56.950656","MEAN_MOTION":13.52663769,"ECCENTRICITY":0.000405,"INCLINATION":88.9936,"RA_OF_ASC_NODE":278.6666,"ARG_OF_PERICENTER":35.3822,"MEAN_ANOMALY":324.7598,"EPHEMERIS_TYPE":0,"CLASSIFICATION_TYPE":"U","NORAD_CAT_ID":67557,"ELEMENT_SET_NO":999,"REV_AT_EPOCH":625,"BSTAR":7.6844e-5,"MEAN_MOTION_DOT":6.3e-7,"MEAN_MOTION_DDOT":0},{"OBJECT_NAME":"FENGYUN 1C DEB","OBJECT_ID":"1999-025EUK","EPOCH":"2026-03-02T05:54:53.035488","MEAN_MOTION":13.30208251,"ECCENTRICITY":0.05009511,"INCLINATION":98.7082,"RA_OF_ASC_NODE":77.1399,"ARG_OF_PERICENTER":58.1712,"MEAN_ANOMALY":306.7183,"EPHEMERIS_TYPE":0,"CLASSIFICATION_TYPE":"U","NORAD_CAT_ID":38795,"ELEMENT_SET_NO":999,"REV_AT_EPOCH":79569,"BSTAR":0.0024425611,"MEAN_MOTION_DOT":2.264e-5,"MEAN_MOTION_DDOT":0}]
